{
    "links": {
        "self": "http://www.neowsapp.com/rest/v1/neo/3608219?api_key=iIulBulltgU6a56xZRHN4H3l9WmuAYTsLGpBGhQ2"
    },
    "id": "3608219",
    "neo_reference_id": "3608219",
    "name": "(2012 QK45)",
    "designation": "2012 QK45",
    "nasa_jpl_url": "http://ssd.jpl.nasa.gov/sbdb.cgi?sstr=3608219",
    "absolute_magnitude_h": 25.9,
    "estimated_diameter": {
        "kilometers": {
            "estimated_diameter_min": 0.0175612318,
            "estimated_diameter_max": 0.0392681082
        },
        "meters": {
            "estimated_diameter_min": 17.561231848,
            "estimated_diameter_max": 39.2681081809
        },
        "miles": {
            "estimated_diameter_min": 0.0109120402,
            "estimated_diameter_max": 0.0244000636
        },
        "feet": {
            "estimated_diameter_min": 57.6155918963,
            "estimated_diameter_max": 128.8323800441
        }
    },
    "is_potentially_hazardous_asteroid": false,
    "close_approach_data": [
        {
            "close_approach_date": "2012-08-13",
            "close_approach_date_full": "2012-Aug-13 13:41",
            "epoch_date_close_approach": 1344865260000,
            "relative_velocity": {
                "kilometers_per_second": "7.347962515",
                "kilometers_per_hour": "26452.6650540563",
                "miles_per_hour": "16436.6573498385"
            },
            "miss_distance": {
                "astronomical": "0.0334723775",
                "lunar": "13.0207548475",
                "kilometers": "5007396.377835925",
                "miles": "3111451.829248765"
            },
            "orbiting_body": "Earth"
        }
    ],
    "orbital_data": {
        "orbit_id": "9",
        "orbit_determination_date": "2017-04-06 08:49:08",
        "first_observation_date": "2012-08-26",
        "last_observation_date": "2012-09-22",
        "data_arc_in_days": 27,
        "observations_used": 17,
        "orbit_uncertainty": "8",
        "minimum_orbit_intersection": ".0288619",
        "jupiter_tisserand_invariant": "3.495",
        "epoch_osculation": "2456167.5",
        "eccentricity": ".5233022275765628",
        "semi_major_axis": "2.172407356511978",
        "inclination": "2.999246312630069",
        "ascending_node_longitude": "333.6003855814267",
        "orbital_period": "1169.52719271644",
        "perihelion_distance": "1.035581747645548",
        "perihelion_argument": "335.6152171737118",
        "aphelion_distance": "3.309232965378408",
        "perihelion_time": "2456143.317925979640",
        "mean_anomaly": "7.443646202966333",
        "mean_motion": ".3078166991259387",
        "equinox": "J2000",
        "orbit_class": {
            "orbit_class_type": "AMO",
            "orbit_class_description": "Near-Earth asteroid orbits similar to that of 1221 Amor",
            "orbit_class_range": "1.017 AU < q (perihelion) < 1.3 AU"
        }
    },
    "is_sentry_object": false
}